{
  "norad_id": 39741,
  "name": "NAVSTAR 70 (USA 251)",
  "history": [
    {
      "epoch": "2026-03-28T04:35:35.006496Z",
      "apogee_km": 20286.884028975328,
      "perigee_km": 20076.9618145728,
      "latitude_deg": 3.2788801766556594e-05,
      "longitude_deg": 80.17500401564455,
      "height_km": 20095.353155471494,
      "semi_major_axis_km": 26560.059921774064,
      "eccentricity": 0.00395184,
      "inclination_deg": 56.535,
      "raan_deg": 334.6726,
      "arg_perigee_deg": 325.7427,
      "mean_anomaly_deg": 34.0463,
      "mean_motion_rev_day": 2.00566865
    }
  ]
}